{
  "type": "FeatureCollection",
  "features": [
    {
      "type": "Feature",
      "properties": {
        "norad_id": 2807,
        "name": "OPS 7218 (TRANSIT 16)",
        "group": "nnss",
        "lat": -55.75637726771058,
        "lon": -6.126144056814597,
        "alt_km": 1091.9644152196852,
        "timestamp": "2025-12-02T13:52:17.530585+00:00",
        "meta_object_name": "OPS 7218 (TRANSIT 16)",
        "meta_object_id": "1967-048A",
        "meta_epoch": "2025-12-02T03:48:58.538304",
        "meta_mean_motion": 13.50719083,
        "meta_eccentricity": 0.00213904,
        "meta_inclination": 89.6737,
        "meta_ra_of_asc_node": 354.3673,
        "meta_arg_of_pericenter": 142.6225,
        "meta_mean_anomaly": 285.552,
        "meta_ephemeris_type": 0,
        "meta_classification_type": "U",
        "meta_norad_cat_id": 2807,
        "meta_element_set_no": 999,
        "meta_rev_at_epoch": 88133,
        "meta_bstar": 0.00020274849,
        "meta_mean_motion_dot": 1.41e-06,
        "meta_mean_motion_ddot": 0,
        "tle_line1": "1 02807U 67048A   25336.15901086  .00000141  00000+0  20275-3 0  9995",
        "tle_line2": "2 02807  89.6737 354.3673 0021390 142.6225 285.5520 13.50719083881334"
      },
      "geometry": {
        "type": "Point",
        "coordinates": [
          -6.126144056814597,
          -55.75637726771058
        ]
      }
    },
    {
      "type": "Feature",
      "properties": {
        "norad_id": 2965,
        "name": "OPS 4947 (TRANSIT 17)",
        "group": "nnss",
        "lat": -88.73637278143286,
        "lon": -118.40615737759788,
        "alt_km": 1033.128484830856,
        "timestamp": "2025-12-02T13:52:17.530606+00:00",
        "meta_object_name": "OPS 4947 (TRANSIT 17)",
        "meta_object_id": "1967-092A",
        "meta_epoch": "2025-12-02T03:56:14.949024",
        "meta_mean_motion": 13.53449539,
        "meta_eccentricity": 0.00457414,
        "meta_inclination": 89.2508,
        "meta_ra_of_asc_node": 25.2417,
        "meta_arg_of_pericenter": 266.3193,
        "meta_mean_anomaly": 147.0431,
        "meta_ephemeris_type": 0,
        "meta_classification_type": "U",
        "meta_norad_cat_id": 2965,
        "meta_element_set_no": 999,
        "meta_rev_at_epoch": 86954,
        "meta_bstar": 0.00020524053,
        "meta_mean_motion_dot": 1.5e-06,
        "meta_mean_motion_ddot": 0,
        "tle_line1": "1 02965U 67092A   25336.16406191  .00000150  00000+0  20524-3 0  9994",
        "tle_line2": "2 02965  89.2508  25.2417 0045741 266.3193 147.0431 13.53449539869546"
      },
      "geometry": {
        "type": "Point",
        "coordinates": [
          -118.40615737759788,
          -88.73637278143286
        ]
      }
    },
    {
      "type": "Feature",
      "properties": {
        "norad_id": 3133,
        "name": "OPS 7034 (TRANSIT 18)",
        "group": "nnss",
        "lat": 53.61169212288403,
        "lon": 93.64707472450979,
        "alt_km": 1044.7712635871503,
        "timestamp": "2025-12-02T13:52:17.530620+00:00",
        "meta_object_name": "OPS 7034 (TRANSIT 18)",
        "meta_object_id": "1968-012A",
        "meta_epoch": "2025-12-02T06:54:01.304640",
        "meta_mean_motion": 13.51562096,
        "meta_eccentricity": 0.00728822,
        "meta_inclination": 90.0268,
        "meta_ra_of_asc_node": 273.6099,
        "meta_arg_of_pericenter": 199.5698,
        "meta_mean_anomaly": 315.0961,
        "meta_ephemeris_type": 0,
        "meta_classification_type": "U",
        "meta_norad_cat_id": 3133,
        "meta_element_set_no": 999,
        "meta_rev_at_epoch": 56777,
        "meta_bstar": 0.00015256196,
        "meta_mean_motion_dot": 1.1e-06,
        "meta_mean_motion_ddot": 0,
        "tle_line1": "1 03133U 68012A   25336.28751510  .00000110  00000+0  15256-3 0  9998",
        "tle_line2": "2 03133  90.0268 273.6099 0072882 199.5698 315.0961 13.51562096567772"
      },
      "geometry": {
        "type": "Point",
        "coordinates": [
          93.64707472450979,
          53.61169212288403
        ]
      }
    },
    {
      "type": "Feature",
      "properties": {
        "norad_id": 4507,
        "name": "NNSS 19 (TRANSIT 19)",
        "group": "nnss",
        "lat": 71.08931591688487,
        "lon": 54.542936397995526,
        "alt_km": 1165.5281025603508,
        "timestamp": "2025-12-02T13:52:17.530632+00:00",
        "meta_object_name": "NNSS 19 (TRANSIT 19)",
        "meta_object_id": "1970-067A",
        "meta_epoch": "2025-12-02T06:13:33.729024",
        "meta_mean_motion": 13.51310727,
        "meta_eccentricity": 0.01712772,
        "meta_inclination": 90.0056,
        "meta_ra_of_asc_node": 234.5264,
        "meta_arg_of_pericenter": 323.954,
        "meta_mean_anomaly": 35.0158,
        "meta_ephemeris_type": 0,
        "meta_classification_type": "U",
        "meta_norad_cat_id": 4507,
        "meta_element_set_no": 999,
        "meta_rev_at_epoch": 72080,
        "meta_bstar": 0.00025982729,
        "meta_mean_motion_dot": 1.93e-06,
        "meta_mean_motion_ddot": 0,
        "tle_line1": "1 04507U 70067A   25336.25941816  .00000193  00000+0  25983-3 0  9993",
        "tle_line2": "2 04507  90.0056 234.5264 0171277 323.9540  35.0158 13.51310727720804"
      },
      "geometry": {
        "type": "Point",
        "coordinates": [
          54.542936397995526,
          71.08931591688487
        ]
      }
    },
    {
      "type": "Feature",
      "properties": {
        "norad_id": 6909,
        "name": "NNSS 20 (TRANSIT 20)",
        "group": "nnss",
        "lat": 12.867551726388015,
        "lon": 75.17345765395547,
        "alt_km": 934.2542725942058,
        "timestamp": "2025-12-02T13:52:17.530643+00:00",
        "meta_object_name": "NNSS 20 (TRANSIT 20)",
        "meta_object_id": "1973-081A",
        "meta_epoch": "2025-12-02T06:04:15.948768",
        "meta_mean_motion": 13.71427065,
        "meta_eccentricity": 0.01564335,
        "meta_inclination": 89.8555,
        "meta_ra_of_asc_node": 255.2114,
        "meta_arg_of_pericenter": 109.3738,
        "meta_mean_anomaly": 252.4411,
        "meta_ephemeris_type": 0,
        "meta_classification_type": "U",
        "meta_norad_cat_id": 6909,
        "meta_element_set_no": 999,
        "meta_rev_at_epoch": 80217,
        "meta_bstar": 0.00026654275,
        "meta_mean_motion_dot": 2.73e-06,
        "meta_mean_motion_ddot": 0,
        "tle_line1": "1 06909U 73081A   25336.25296237  .00000273  00000+0  26654-3 0  9995",
        "tle_line2": "2 06909  89.8555 255.2114 0156433 109.3738 252.4411 13.71427065802172"
      },
      "geometry": {
        "type": "Point",
        "coordinates": [
          75.17345765395547,
          12.867551726388015
        ]
      }
    },
    {
      "type": "Feature",
      "properties": {
        "norad_id": 10457,
        "name": "TRANSAT",
        "group": "nnss",
        "lat": -19.346027687474024,
        "lon": -100.91970110780267,
        "alt_km": 1064.1538564910588,
        "timestamp": "2025-12-02T13:52:17.530654+00:00",
        "meta_object_name": "TRANSAT",
        "meta_object_id": "1977-106A",
        "meta_epoch": "2025-12-02T07:50:32.135712",
        "meta_mean_motion": 13.48940991,
        "meta_eccentricity": 0.00244663,
        "meta_inclination": 89.6482,
        "meta_ra_of_asc_node": 78.9656,
        "meta_arg_of_pericenter": 220.2889,
        "meta_mean_anomaly": 199.7965,
        "meta_ephemeris_type": 0,
        "meta_classification_type": "U",
        "meta_norad_cat_id": 10457,
        "meta_element_set_no": 999,
        "meta_rev_at_epoch": 36603,
        "meta_bstar": 0.00012738272,
        "meta_mean_motion_dot": 9e-07,
        "meta_mean_motion_ddot": 0,
        "tle_line1": "1 10457U 77106A   25336.32676083  .00000090  00000+0  12738-3 0  9994",
        "tle_line2": "2 10457  89.6482  78.9656 0024466 220.2889 199.7965 13.48940991366032"
      },
      "geometry": {
        "type": "Point",
        "coordinates": [
          -100.91970110780267,
          -19.346027687474024
        ]
      }
    },
    {
      "type": "Feature",
      "properties": {
        "norad_id": 12458,
        "name": "NOVA 1",
        "group": "nnss",
        "lat": -41.661061889690934,
        "lon": 91.39703068058945,
        "alt_km": 1190.4204645310692,
        "timestamp": "2025-12-02T13:52:17.530665+00:00",
        "meta_object_name": "NOVA 1",
        "meta_object_id": "1981-044A",
        "meta_epoch": "2025-12-02T07:07:37.032096",
        "meta_mean_motion": 13.23276708,
        "meta_eccentricity": 0.00155583,
        "meta_inclination": 89.8521,
        "meta_ra_of_asc_node": 91.5327,
        "meta_arg_of_pericenter": 129.7248,
        "meta_mean_anomaly": 290.7665,
        "meta_ephemeris_type": 0,
        "meta_classification_type": "U",
        "meta_norad_cat_id": 12458,
        "meta_element_set_no": 999,
        "meta_rev_at_epoch": 15048,
        "meta_bstar": 0.00013828379,
        "meta_mean_motion_dot": 6.8e-07,
        "meta_mean_motion_ddot": 0,
        "tle_line1": "1 12458U 81044A   25336.29695639  .00000068  00000+0  13828-3 0  9993",
        "tle_line2": "2 12458  89.8521  91.5327 0015558 129.7248 290.7665 13.23276708150481"
      },
      "geometry": {
        "type": "Point",
        "coordinates": [
          91.39703068058945,
          -41.661061889690934
        ]
      }
    }
  ]
}